{
"type": "FeatureCollection",
"crs": { "type": "name", "properties": { "name": "urn:ogc:def:crs:OGC:1.3:CRS84" } },
                                                                                
"features": [
{ "type": "Feature", "properties": { "name": "Arakera Community Health Centre", "Latitude": 16.8475, "Longitude": 77.0158, "amenity": "hospital", "operator": "Government" }, "geometry": { "type": "Point", "coordinates": [ 77.0158, 16.8475 ] } },
{ "type": "Feature", "properties": { "name": "Gurumatkal Community Health Centre", "Latitude": 16.8682, "Longitude": 77.3861, "amenity": "hospital", "operator": "Government" }, "geometry": { "type": "Point", "coordinates": [ 77.3861, 16.8682 ] } },
{ "type": "Feature", "properties": { "name": "Saidapur Community Health Centre", "Latitude": 16.5742, "Longitude": 77.252, "amenity": "hospital", "operator": "Government" }, "geometry": { "type": "Point", "coordinates": [ 77.252, 16.5742 ] } },
{ "type": "Feature", "properties": { "name": "Yadgir District Hospital", "Latitude": 16.7524, "Longitude": 77.139, "amenity": "hospital", "operator": "Government" }, "geometry": { "type": "Point", "coordinates": [ 77.139, 16.7524 ] } },
{ "type": "Feature", "properties": { "name": "Ajlapur  (24X7) Primary Health Center", "Latitude": 16.5886, "Longitude": 77.4224, "amenity": "hospital", "operator": "Government" }, "geometry": { "type": "Point", "coordinates": [ 77.4224, 16.5886 ] } },
{ "type": "Feature", "properties": { "name": "Alipur (24X7) Primary Health Center", "Latitude": 16.8356, "Longitude": 77.0926, "amenity": "hospital", "operator": "Government" }, "geometry": { "type": "Point", "coordinates": [ 77.0926, 16.8356 ] } },
{ "type": "Feature", "properties": { "name": "Balichakra  (24X7) Primary Health Center", "Latitude": 16.6742, "Longitude": 77.2641, "amenity": "hospital", "operator": "Government" }, "geometry": { "type": "Point", "coordinates": [ 77.2641, 16.6742 ] } },
{ "type": "Feature", "properties": { "name": "Yelheri Primary Health Center", "Latitude": 16.7299, "Longitude": 77.3307, "amenity": "hospital", "operator": "Government" }, "geometry": { "type": "Point", "coordinates": [ 77.3307, 16.7299 ] } },
{ "type": "Feature", "properties": { "name": "Gajarkot (24X7) Primary Health Center", "Latitude": 16.8946, "Longitude": 77.2916, "amenity": "hospital", "operator": "Government" }, "geometry": { "type": "Point", "coordinates": [ 77.2916, 16.8946 ] } },
{ "type": "Feature", "properties": { "name": "Hathikuni  (24X7) Primary Health Center", "Latitude": 16.8481, "Longitude": 77.155, "amenity": "hospital", "operator": "Government" }, "geometry": { "type": "Point", "coordinates": [ 77.155, 16.8481 ] } },
{ "type": "Feature", "properties": { "name": "Honagera (24X7) Primary Health Center", "Latitude": 16.8193, "Longitude": 77.1885, "amenity": "hospital", "operator": "Government" }, "geometry": { "type": "Point", "coordinates": [ 77.1885, 16.8193 ] } },
{ "type": "Feature", "properties": { "name": "Kadechur (24X7) Primary Health Center", "Latitude": 16.5176, "Longitude": 77.3277, "amenity": "hospital", "operator": "Government" }, "geometry": { "type": "Point", "coordinates": [ 77.3277, 16.5176 ] } },
{ "type": "Feature", "properties": { "name": "Kandakoor  (24X7) Primary Health Center", "Latitude": 16.7825, "Longitude": 77.33, "amenity": "hospital", "operator": "Government" }, "geometry": { "type": "Point", "coordinates": [ 77.33, 16.7825 ] } },
{ "type": "Feature", "properties": { "name": "Kaulura (24X7) Primary Health Center", "Latitude": 16.6668, "Longitude": 77.1541, "amenity": "hospital", "operator": "Government" }, "geometry": { "type": "Point", "coordinates": [ 77.1541, 16.6668 ] } },
{ "type": "Feature", "properties": { "name": "Konkal (24X7) Primary Health Center", "Latitude": 16.7386, "Longitude": 77.3804, "amenity": "hospital", "operator": "Government" }, "geometry": { "type": "Point", "coordinates": [ 77.3804, 16.7386 ] } },
{ "type": "Feature", "properties": { "name": "Kotagera (24X7) Primary Health Center", "Latitude": 16.898, "Longitude": 77.2404, "amenity": "hospital", "operator": "Government" }, "geometry": { "type": "Point", "coordinates": [ 77.2404, 16.898 ] } },
{ "type": "Feature", "properties": { "name": "Madhwar (24X7) Primary Health Center", "Latitude": 16.6484, "Longitude": 77.3394, "amenity": "hospital", "operator": "Government" }, "geometry": { "type": "Point", "coordinates": [ 77.3394, 16.6484 ] } },
{ "type": "Feature", "properties": { "name": "Malhar (24X7) Primary Health Center", "Latitude": 16.6251, "Longitude": 77.1977, "amenity": "hospital", "operator": "Government" }, "geometry": { "type": "Point", "coordinates": [ 77.1977, 16.6251 ] } },
{ "type": "Feature", "properties": { "name": "Mudnal (24X7) Primary Health Center", "Latitude": 16.7809, "Longitude": 77.1025, "amenity": "hospital", "operator": "Government" }, "geometry": { "type": "Point", "coordinates": [ 77.1025, 16.7809 ] } },
{ "type": "Feature", "properties": { "name": "Yergol (24X7) Primary Health Center", "Latitude": 16.9064, "Longitude": 77.0646, "amenity": "hospital", "operator": "Government" }, "geometry": { "type": "Point", "coordinates": [ 77.0646, 16.9064 ] } },
{ "type": "Feature", "properties": { "name": "Ajalapura Health Sub Centre", "Latitude": 16.5887, "Longitude": 77.4227, "amenity": "hospital", "operator": "Government" }, "geometry": { "type": "Point", "coordinates": [ 77.4227, 16.5887 ] } },
{ "type": "Feature", "properties": { "name": "Allipura Health Sub Centre", "Latitude": 16.8415, "Longitude": 77.0951, "amenity": "hospital", "operator": "Government" }, "geometry": { "type": "Point", "coordinates": [ 77.0951, 16.8415 ] } },
{ "type": "Feature", "properties": { "name": "Anapura Health Sub Centre", "Latitude": 16.746, "Longitude": 77.414, "amenity": "hospital", "operator": "Government" }, "geometry": { "type": "Point", "coordinates": [ 77.414, 16.746 ] } },
{ "type": "Feature", "properties": { "name": "Arakera B Health Sub Centre", "Latitude": 16.8468, "Longitude": 77.0151, "amenity": "hospital", "operator": "Government" }, "geometry": { "type": "Point", "coordinates": [ 77.0151, 16.8468 ] } },
{ "type": "Feature", "properties": { "name": "Arikera(K) Health Sub Centre", "Latitude": 16.7617, "Longitude": 77.2704, "amenity": "hospital", "operator": "Government" }, "geometry": { "type": "Point", "coordinates": [ 77.2704, 16.7617 ] } },
{ "type": "Feature", "properties": { "name": "Baddepalli Health Sub Centre", "Latitude": 16.5699, "Longitude": 77.3703, "amenity": "hospital", "operator": "Government" }, "geometry": { "type": "Point", "coordinates": [ 77.3703, 16.5699 ] } },
{ "type": "Feature", "properties": { "name": "Badiyala Health Sub Centre", "Latitude": 16.4921, "Longitude": 77.2753, "amenity": "hospital", "operator": "Government" }, "geometry": { "type": "Point", "coordinates": [ 77.2753, 16.4921 ] } },
{ "type": "Feature", "properties": { "name": "Balacheda Health Sub Centre", "Latitude": 16.5607, "Longitude": 77.3137, "amenity": "hospital", "operator": "Government" }, "geometry": { "type": "Point", "coordinates": [ 77.3137, 16.5607 ] } },
{ "type": "Feature", "properties": { "name": "Balichakra Health Sub Centre", "Latitude": 16.6774, "Longitude": 77.2634, "amenity": "hospital", "operator": "Government" }, "geometry": { "type": "Point", "coordinates": [ 77.2634, 16.6774 ] } },
{ "type": "Feature", "properties": { "name": "Bandhalli Health Sub Centre", "Latitude": 16.8016, "Longitude": 77.1426, "amenity": "hospital", "operator": "Government" }, "geometry": { "type": "Point", "coordinates": [ 77.1426, 16.8016 ] } },
{ "type": "Feature", "properties": { "name": "Belagera Health Sub Centre", "Latitude": 16.9285, "Longitude": 77.1364, "amenity": "hospital", "operator": "Government" }, "geometry": { "type": "Point", "coordinates": [ 77.1364, 16.9285 ] } },
{ "type": "Feature", "properties": { "name": "Belagunda Health Sub Centre", "Latitude": 16.5521, "Longitude": 77.2199, "amenity": "hospital", "operator": "Government" }, "geometry": { "type": "Point", "coordinates": [ 77.2199, 16.5521 ] } },
{ "type": "Feature", "properties": { "name": "Borabandi Health Sub Centre", "Latitude": 16.832, "Longitude": 77.3795, "amenity": "hospital", "operator": "Government" }, "geometry": { "type": "Point", "coordinates": [ 77.3795, 16.832 ] } },
{ "type": "Feature", "properties": { "name": "Chandriki Health Sub Centre", "Latitude": 16.8603, "Longitude": 77.4368, "amenity": "hospital", "operator": "Government" }, "geometry": { "type": "Point", "coordinates": [ 77.4368, 16.8603 ] } },
{ "type": "Feature", "properties": { "name": "Chapetla Health Sub Centre", "Latitude": 16.8755, "Longitude": 77.3388, "amenity": "hospital", "operator": "Government" }, "geometry": { "type": "Point", "coordinates": [ 77.3388, 16.8755 ] } },
{ "type": "Feature", "properties": { "name": "Chinakara Health Sub Centre", "Latitude": 16.7835, "Longitude": 77.3765, "amenity": "hospital", "operator": "Government" }, "geometry": { "type": "Point", "coordinates": [ 77.3765, 16.7835 ] } },
{ "type": "Feature", "properties": { "name": "Chintakunta Health Sub Centre", "Latitude": 16.9268, "Longitude": 77.2161, "amenity": "hospital", "operator": "Government" }, "geometry": { "type": "Point", "coordinates": [ 77.2161, 16.9268 ] } },
{ "type": "Feature", "properties": { "name": "Duppalli Health Sub Centre", "Latitude": 16.5366, "Longitude": 77.3895, "amenity": "hospital", "operator": "Government" }, "geometry": { "type": "Point", "coordinates": [ 77.3895, 16.5366 ] } },
{ "type": "Feature", "properties": { "name": "Yelheri Health Sub Centre", "Latitude": 16.7298, "Longitude": 77.3308, "amenity": "hospital", "operator": "Government" }, "geometry": { "type": "Point", "coordinates": [ 77.3308, 16.7298 ] } },
{ "type": "Feature", "properties": { "name": "Gajarakota Health Sub Centre", "Latitude": 16.8944, "Longitude": 77.2917, "amenity": "hospital", "operator": "Government" }, "geometry": { "type": "Point", "coordinates": [ 77.2917, 16.8944 ] } },
{ "type": "Feature", "properties": { "name": "Gondadagi Health Sub Centre", "Latitude": 16.5057, "Longitude": 77.2132, "amenity": "hospital", "operator": "Government" }, "geometry": { "type": "Point", "coordinates": [ 77.2132, 16.5057 ] } },
{ "type": "Feature", "properties": { "name": "Gunjanura Health Sub Centre", "Latitude": 16.7826, "Longitude": 77.3509, "amenity": "hospital", "operator": "Government" }, "geometry": { "type": "Point", "coordinates": [ 77.3509, 16.7826 ] } },
{ "type": "Feature", "properties": { "name": "Hatthikuni Health Sub Centre", "Latitude": 16.85, "Longitude": 77.1538, "amenity": "hospital", "operator": "Government" }, "geometry": { "type": "Point", "coordinates": [ 77.1538, 16.85 ] } },
{ "type": "Feature", "properties": { "name": "Honagera Health Sub Centre", "Latitude": 16.82, "Longitude": 77.1864, "amenity": "hospital", "operator": "Government" }, "geometry": { "type": "Point", "coordinates": [ 77.1864, 16.82 ] } },
{ "type": "Feature", "properties": { "name": "Jaigram Health Sub Centre", "Latitude": 16.6472, "Longitude": 77.4259, "amenity": "hospital", "operator": "Government" }, "geometry": { "type": "Point", "coordinates": [ 77.4259, 16.6472 ] } },
{ "type": "Feature", "properties": { "name": "Jinakera Health Sub Centre", "Latitude": 16.6906, "Longitude": 77.2062, "amenity": "hospital", "operator": "Government" }, "geometry": { "type": "Point", "coordinates": [ 77.2062, 16.6906 ] } },
{ "type": "Feature", "properties": { "name": "Kadechura Health Sub Centre", "Latitude": 16.5192, "Longitude": 77.3298, "amenity": "hospital", "operator": "Government" }, "geometry": { "type": "Point", "coordinates": [ 77.3298, 16.5192 ] } },
{ "type": "Feature", "properties": { "name": "Kalabelagundi Health Sub Centre", "Latitude": 16.6587, "Longitude": 77.3129, "amenity": "hospital", "operator": "Government" }, "geometry": { "type": "Point", "coordinates": [ 77.3129, 16.6587 ] } },
{ "type": "Feature", "properties": { "name": "Kandakura Health Sub Centre", "Latitude": 16.7824, "Longitude": 77.33, "amenity": "hospital", "operator": "Government" }, "geometry": { "type": "Point", "coordinates": [ 77.33, 16.7824 ] } },
{ "type": "Feature", "properties": { "name": "Kanekal Health Sub Centre", "Latitude": 16.6034, "Longitude": 77.3039, "amenity": "hospital", "operator": "Government" }, "geometry": { "type": "Point", "coordinates": [ 77.3039, 16.6034 ] } },
{ "type": "Feature", "properties": { "name": "Killanakera Health Sub Centre", "Latitude": 16.6396, "Longitude": 77.2619, "amenity": "hospital", "operator": "Government" }, "geometry": { "type": "Point", "coordinates": [ 77.2619, 16.6396 ] } },
{ "type": "Feature", "properties": { "name": "Konkal Health Sub Centre", "Latitude": 16.7386, "Longitude": 77.3806, "amenity": "hospital", "operator": "Government" }, "geometry": { "type": "Point", "coordinates": [ 77.3806, 16.7386 ] } },
{ "type": "Feature", "properties": { "name": "Kotgera Health Sub Centre", "Latitude": 16.8958, "Longitude": 77.2418, "amenity": "hospital", "operator": "Government" }, "geometry": { "type": "Point", "coordinates": [ 77.2418, 16.8958 ] } },
{ "type": "Feature", "properties": { "name": "Kowlura Health Sub Centre", "Latitude": 16.6679, "Longitude": 77.1492, "amenity": "hospital", "operator": "Government" }, "geometry": { "type": "Point", "coordinates": [ 77.1492, 16.6679 ] } },
{ "type": "Feature", "properties": { "name": "Kyasapnalli Health Sub Centre", "Latitude": 16.8347, "Longitude": 77.0639, "amenity": "hospital", "operator": "Government" }, "geometry": { "type": "Point", "coordinates": [ 77.0639, 16.8347 ] } },
{ "type": "Feature", "properties": { "name": "Madhwara Health Sub Centre", "Latitude": 16.6467, "Longitude": 77.3379, "amenity": "hospital", "operator": "Government" }, "geometry": { "type": "Point", "coordinates": [ 77.3379, 16.6467 ] } },
{ "type": "Feature", "properties": { "name": "Meenasapura Health Sub Centre", "Latitude": 16.7856, "Longitude": 77.4088, "amenity": "hospital", "operator": "Government" }, "geometry": { "type": "Point", "coordinates": [ 77.4088, 16.7856 ] } },
{ "type": "Feature", "properties": { "name": "Motnalli Health Sub Centre", "Latitude": 16.9063, "Longitude": 77.2168, "amenity": "hospital", "operator": "Government" }, "geometry": { "type": "Point", "coordinates": [ 77.2168, 16.9063 ] } },
{ "type": "Feature", "properties": { "name": "Mudnala Health Sub Centre", "Latitude": 16.7816, "Longitude": 77.1019, "amenity": "hospital", "operator": "Government" }, "geometry": { "type": "Point", "coordinates": [ 77.1019, 16.7816 ] } },
{ "type": "Feature", "properties": { "name": "Mundaragi Health Sub Centre", "Latitude": 16.7808, "Longitude": 77.1839, "amenity": "hospital", "operator": "Government" }, "geometry": { "type": "Point", "coordinates": [ 77.1839, 16.7808 ] } },
{ "type": "Feature", "properties": { "name": "Mushtura Health Sub Centre", "Latitude": 16.6957, "Longitude": 77.1683, "amenity": "hospital", "operator": "Government" }, "geometry": { "type": "Point", "coordinates": [ 77.1683, 16.6957 ] } },
{ "type": "Feature", "properties": { "name": "Mylapura Health Sub Centre", "Latitude": 16.7418, "Longitude": 77.2429, "amenity": "hospital", "operator": "Government" }, "geometry": { "type": "Point", "coordinates": [ 77.2429, 16.7418 ] } },
{ "type": "Feature", "properties": { "name": "Nasalavai Health Sub Centre", "Latitude": 16.6999, "Longitude": 77.4469, "amenity": "hospital", "operator": "Government" }, "geometry": { "type": "Point", "coordinates": [ 77.4469, 16.6999 ] } },
{ "type": "Feature", "properties": { "name": "Putapaka Health Sub Centre", "Latitude": 16.813, "Longitude": 77.4553, "amenity": "hospital", "operator": "Government" }, "geometry": { "type": "Point", "coordinates": [ 77.4553, 16.813 ] } },
{ "type": "Feature", "properties": { "name": "Ramasamudra Health Sub Centre", "Latitude": 16.7727, "Longitude": 77.2349, "amenity": "hospital", "operator": "Government" }, "geometry": { "type": "Point", "coordinates": [ 77.2349, 16.7727 ] } },
{ "type": "Feature", "properties": { "name": "Saidapur Health Sub Centre", "Latitude": 16.5742, "Longitude": 77.2521, "amenity": "hospital", "operator": "Government" }, "geometry": { "type": "Point", "coordinates": [ 77.2521, 16.5742 ] } },
{ "type": "Feature", "properties": { "name": "Savura  Health Sub Centre", "Latitude": 16.6077, "Longitude": 77.2013, "amenity": "hospital", "operator": "Government" }, "geometry": { "type": "Point", "coordinates": [ 77.2013, 16.6077 ] } },
{ "type": "Feature", "properties": { "name": "Tanagundi  Health Sub Centre", "Latitude": 16.7946, "Longitude": 77.0554, "amenity": "hospital", "operator": "Government" }, "geometry": { "type": "Point", "coordinates": [ 77.0554, 16.7946 ] } },
{ "type": "Feature", "properties": { "name": "Vankasambra  Health Sub Centre", "Latitude": 16.6089, "Longitude": 77.3739, "amenity": "hospital", "operator": "Government" }, "geometry": { "type": "Point", "coordinates": [ 77.3739, 16.6089 ] } },
{ "type": "Feature", "properties": { "name": "Yaddalli  Health Sub Centre", "Latitude": 16.8372, "Longitude": 77.1476, "amenity": "hospital", "operator": "Government" }, "geometry": { "type": "Point", "coordinates": [ 77.1476, 16.8372 ] } },
{ "type": "Feature", "properties": { "name": "Yadlapura  Health Sub Centre", "Latitude": 16.8777, "Longitude": 77.3127, "amenity": "hospital", "operator": "Government" }, "geometry": { "type": "Point", "coordinates": [ 77.3127, 16.8777 ] } },
{ "type": "Feature", "properties": { "name": "Yalasathi  Health Sub Centre", "Latitude": 16.6839, "Longitude": 77.3629, "amenity": "hospital", "operator": "Government" }, "geometry": { "type": "Point", "coordinates": [ 77.3629, 16.6839 ] } },
{ "type": "Feature", "properties": { "name": "Yergol-A  Health Sub Centre", "Latitude": 16.9061, "Longitude": 77.0651, "amenity": "hospital", "operator": "Government" }, "geometry": { "type": "Point", "coordinates": [ 77.0651, 16.9061 ] } },
{ "type": "Feature", "properties": { "name": "Yergol-B  Health Sub Centre", "Latitude": 16.9061, "Longitude": 77.0648, "amenity": "hospital", "operator": "Government" }, "geometry": { "type": "Point", "coordinates": [ 77.0648, 16.9061 ] } }
]
}
